{"type": "FeatureCollection", "features": [ {"type": "Feature", "properties": {"norad_id": 38953, "name": "BEIDOU-2 G6 (C02)", "group": "beidou", "lat": -3.4815775881251825, "lon": 13.383072005525285, "alt_km": 35755.43055588677, "timestamp": "2025-12-11T13:55:02.430062+00:00", "meta": {"OBJECT_NAME": "BEIDOU-2 G6 (C02)", "OBJECT_ID": "2012-059A", "EPOCH": "2025-12-10T20:47:26.918592", "MEAN_MOTION": 1.0026968, "ECCENTRICITY": 0.0007636, "INCLINATION": 3.9445, "RA_OF_ASC_NODE": 75.5197, "ARG_OF_PERICENTER": 289.1731, "MEAN_ANOMALY": 111.0256, "EPHEMERIS_TYPE": 0, "CLASSIFICATION_TYPE": "U", "NORAD_CAT_ID": 38953, "ELEMENT_SET_NO": 999, "REV_AT_EPOCH": 4802, "BSTAR": 0, "MEAN_MOTION_DOT": -1.7e-06, "MEAN_MOTION_DDOT": 0}, "tle": {"line1": "1 38953U 12059A   25344.86628378 -.00000170  00000+0  00000+0 0  9998", "line2": "2 38953   3.9445  75.5197 0007636 289.1731 111.0256  1.00269680 48024"}}, "geometry": {"type": "Point", "coordinates": [13.383072005525285, -3.4815775881251825]}}, {"type": "Feature", "properties": {"norad_id": 40549, "name": "BEIDOU-3S IGSO-1S (C31)", "group": "beidou", "lat": 49.33241022524599, "lon": 20.270211909693213, "alt_km": 35823.810163035094, "timestamp": "2025-12-11T13:55:02.430090+00:00", "meta": {"OBJECT_NAME": "BEIDOU-3S IGSO-1S (C31)", "OBJECT_ID": "2015-019A", "EPOCH": "2025-12-07T20:38:38.671584", "MEAN_MOTION": 1.00293516, "ECCENTRICITY": 0.00368211, "INCLINATION": 49.562, "RA_OF_ASC_NODE": 297.7693, "ARG_OF_PERICENTER": 193.8977, "MEAN_ANOMALY": 348.5751, "EPHEMERIS_TYPE": 0, "CLASSIFICATION_TYPE": "U", "NORAD_CAT_ID": 40549, "ELEMENT_SET_NO": 999, "REV_AT_EPOCH": 3915, "BSTAR": 0, "MEAN_MOTION_DOT": -1.86e-06, "MEAN_MOTION_DDOT": 0}, "tle": {"line1": "1 40549U 15019A   25341.86016981 -.00000186  00000+0  00000+0 0  9996", "line2": "2 40549  49.5620 297.7693 0036821 193.8977 348.5751  1.00293516 39155"}}, "geometry": {"type": "Point", "coordinates": [20.270211909693213, 49.33241022524599]}}, {"type": "Feature", "properties": {"norad_id": 40748, "name": "BEIDOU-3S M2S (C58)", "group": "beidou", "lat": 40.995273638228504, "lon": 91.06485588506878, "alt_km": 21550.15120222732, "timestamp": "2025-12-11T13:55:02.430104+00:00", "meta": {"OBJECT_NAME": "BEIDOU-3S M2S (C58)", "OBJECT_ID": "2015-037A", "EPOCH": "2025-12-09T05:49:19.735392", "MEAN_MOTION": 1.86228936, "ECCENTRICITY": 0.00124384, "INCLINATION": 55.042, "RA_OF_ASC_NODE": 308.5839, "ARG_OF_PERICENTER": 267.3919, "MEAN_ANOMALY": 92.4547, "EPHEMERIS_TYPE": 0, "CLASSIFICATION_TYPE": "U", "NORAD_CAT_ID": 40748, "ELEMENT_SET_NO": 999, "REV_AT_EPOCH": 7058, "BSTAR": 0, "MEAN_MOTION_DOT": -7.5e-07, "MEAN_MOTION_DDOT": 0}, "tle": {"line1": "1 40748U 15037A   25343.24258953 -.00000075  00000+0  00000+0 0  9995", "line2": "2 40748  55.0420 308.5839 0012438 267.3919  92.4547  1.86228936 70588"}}, "geometry": {"type": "Point", "coordinates": [91.06485588506878, 40.995273638228504]}}, {"type": "Feature", "properties": {"norad_id": 40749, "name": "BEIDOU-3S M1S (C57)", "group": "beidou", "lat": -22.175405816162492, "lon": -68.08386061186506, "alt_km": 21520.119822378107, "timestamp": "2025-12-11T13:55:02.430116+00:00", "meta": {"OBJECT_NAME": "BEIDOU-3S M1S (C57)", "OBJECT_ID": "2015-037B", "EPOCH": "2025-12-08T22:28:18.289056", "MEAN_MOTION": 1.86253835, "ECCENTRICITY": 0.0003421, "INCLINATION": 55.0388, "RA_OF_ASC_NODE": 308.5837, "ARG_OF_PERICENTER": 357.7489, "MEAN_ANOMALY": 2.238, "EPHEMERIS_TYPE": 0, "CLASSIFICATION_TYPE": "U", "NORAD_CAT_ID": 40749, "ELEMENT_SET_NO": 999, "REV_AT_EPOCH": 7058, "BSTAR": 0, "MEAN_MOTION_DOT": -7.4e-07, "MEAN_MOTION_DDOT": 0}, "tle": {"line1": "1 40749U 15037B   25342.93632279 -.00000074  00000+0  00000+0 0  9997", "line2": "2 40749  55.0388 308.5837 0003421 357.7489   2.2380  1.86253835 70588"}}, "geometry": {"type": "Point", "coordinates": [-68.08386061186506, -22.175405816162492]}}, {"type": "Feature", "properties": {"norad_id": 40938, "name": "BEIDOU-3S IGSO-2S (C56)", "group": "beidou", "lat": 39.303163793404956, "lon": 36.75015676011305, "alt_km": 35671.210086253144, "timestamp": "2025-12-11T13:55:02.430128+00:00", "meta": {"OBJECT_NAME": "BEIDOU-3S IGSO-2S (C56)", "OBJECT_ID": "2015-053A", "EPOCH": "2025-12-10T19:08:53.549664", "MEAN_MOTION": 1.00269885, "ECCENTRICITY": 0.00610666, "INCLINATION": 49.5143, "RA_OF_ASC_NODE": 261.0281, "ARG_OF_PERICENTER": 188.5075, "MEAN_ANOMALY": 13.4914, "EPHEMERIS_TYPE": 0, "CLASSIFICATION_TYPE": "U", "NORAD_CAT_ID": 40938, "ELEMENT_SET_NO": 999, "REV_AT_EPOCH": 3746, "BSTAR": 0, "MEAN_MOTION_DOT": -1.54e-06, "MEAN_MOTION_DDOT": 0}, "tle": {"line1": "1 40938U 15053A   25344.79784201 -.00000154  00000+0  00000+0 0  9993", "line2": "2 40938  49.5143 261.0281 0061066 188.5075  13.4914  1.00269885 37466"}}, "geometry": {"type": "Point", "coordinates": [36.75015676011305, 39.303163793404956]}}, {"type": "Feature", "properties": {"norad_id": 41434, "name": "BEIDOU-2 IGSO-6 (C13)", "group": "beidou", "lat": -14.797851187382566, "lon": 31.16075395385555, "alt_km": 35885.33800766089, "timestamp": "2025-12-11T13:55:02.430140+00:00", "meta": {"OBJECT_NAME": "BEIDOU-2 IGSO-6 (C13)", "OBJECT_ID": "2016-021A", "EPOCH": "2025-12-03T15:53:57.382080", "MEAN_MOTION": 1.00293531, "ECCENTRICITY": 0.00596341, "INCLINATION": 59.9536, "RA_OF_ASC_NODE": 39.991, "ARG_OF_PERICENTER": 228.541, "MEAN_ANOMALY": 135.1173, "EPHEMERIS_TYPE": 0, "CLASSIFICATION_TYPE": "U", "NORAD_CAT_ID": 41434, "ELEMENT_SET_NO": 999, "REV_AT_EPOCH": 3552, "BSTAR": 0, "MEAN_MOTION_DOT": -1.61e-06, "MEAN_MOTION_DDOT": 0}, "tle": {"line1": "1 41434U 16021A   25337.66246970 -.00000161  00000+0  00000+0 0  9993", "line2": "2 41434  59.9536  39.9910 0059634 228.5410 135.1173  1.00293531 35525"}}, "geometry": {"type": "Point", "coordinates": [31.16075395385555, -14.797851187382566]}}, {"type": "Feature", "properties": {"norad_id": 41586, "name": "BEIDOU-2 G7 (C03)", "group": "beidou", "lat": -0.808414691133291, "lon": 39.72174206004192, "alt_km": 35771.031329243815, "timestamp": "2025-12-11T13:55:02.430174+00:00", "meta": {"OBJECT_NAME": "BEIDOU-2 G7 (C03)", "OBJECT_ID": "2016-037A", "EPOCH": "2025-12-11T02:03:05.631840", "MEAN_MOTION": 1.00267887, "ECCENTRICITY": 0.00043864, "INCLINATION": 1.7534, "RA_OF_ASC_NODE": 67.7301, "ARG_OF_PERICENTER": 0.3231, "MEAN_ANOMALY": 153.2176, "EPHEMERIS_TYPE": 0, "CLASSIFICATION_TYPE": "U", "NORAD_CAT_ID": 41586, "ELEMENT_SET_NO": 999, "REV_AT_EPOCH": 500, "BSTAR": 0, "MEAN_MOTION_DOT": -3.47e-06, "MEAN_MOTION_DDOT": 0}, "tle": {"line1": "1 41586U 16037A   25345.08548185 -.00000347  00000+0  00000+0 0  9992", "line2": "2 41586   1.7534  67.7301 0004386   0.3231 153.2176  1.00267887  5009"}}, "geometry": {"type": "Point", "coordinates": [39.72174206004192, -0.808414691133291]}}, {"type": "Feature", "properties": {"norad_id": 43001, "name": "BEIDOU-3 M1 (C19)", "group": "beidou", "lat": -53.84707752294988, "lon": -45.98104454067706, "alt_km": 21517.13233446772, "timestamp": "2025-12-11T13:55:02.430188+00:00", "meta": {"OBJECT_NAME": "BEIDOU-3 M1 (C19)", "OBJECT_ID": "2017-069A", "EPOCH": "2025-12-10T02:59:44.237184", "MEAN_MOTION": 1.86231011, "ECCENTRICITY": 0.0009053, "INCLINATION": 56.5252, "RA_OF_ASC_NODE": 69.32, "ARG_OF_PERICENTER": 303.7778, "MEAN_ANOMALY": 56.1585, "EPHEMERIS_TYPE": 0, "CLASSIFICATION_TYPE": "U", "NORAD_CAT_ID": 43001, "ELEMENT_SET_NO": 999, "REV_AT_EPOCH": 5508, "BSTAR": 0, "MEAN_MOTION_DOT": -5.2e-07, "MEAN_MOTION_DDOT": 0}, "tle": {"line1": "1 43001U 17069A   25344.12481756 -.00000052  00000+0  00000+0 0  9999", "line2": "2 43001  56.5252  69.3200 0009053 303.7778  56.1585  1.86231011 55088"}}, "geometry": {"type": "Point", "coordinates": [-45.98104454067706, -53.84707752294988]}}, {"type": "Feature", "properties": {"norad_id": 43002, "name": "BEIDOU-3 M2 (C20)", "group": "beidou", "lat": -48.12660845463521, "lon": 21.82722117686706, "alt_km": 21519.406010008144, "timestamp": "2025-12-11T13:55:02.430209+00:00", "meta": {"OBJECT_NAME": "BEIDOU-3 M2 (C20)", "OBJECT_ID": "2017-069B", "EPOCH": "2025-12-09T12:37:45.819264", "MEAN_MOTION": 1.8623055, "ECCENTRICITY": 0.0006254, "INCLINATION": 56.5238, "RA_OF_ASC_NODE": 69.3764, "ARG_OF_PERICENTER": 332.6094, "MEAN_ANOMALY": 27.38, "EPHEMERIS_TYPE": 0, "CLASSIFICATION_TYPE": "U", "NORAD_CAT_ID": 43002, "ELEMENT_SET_NO": 999, "REV_AT_EPOCH": 5506, "BSTAR": 0, "MEAN_MOTION_DOT": -4.8e-07, "MEAN_MOTION_DDOT": 0}, "tle": {"line1": "1 43002U 17069B   25343.52622476 -.00000048  00000+0  00000+0 0  9994", "line2": "2 43002  56.5238  69.3764 0006254 332.6094  27.3800  1.86230550 55065"}}, "geometry": {"type": "Point", "coordinates": [21.82722117686706, -48.12660845463521]}}, {"type": "Feature", "properties": {"norad_id": 43107, "name": "BEIDOU-3 M7 (C27)", "group": "beidou", "lat": 50.234410652461506, "lon": 69.82987709611884, "alt_km": 21516.276316317548, "timestamp": "2025-12-11T13:55:02.430220+00:00", "meta": {"OBJECT_NAME": "BEIDOU-3 M7 (C27)", "OBJECT_ID": "2018-003A", "EPOCH": "2025-12-10T08:14:11.609952", "MEAN_MOTION": 1.86232173, "ECCENTRICITY": 0.00026083, "INCLINATION": 54.4988, "RA_OF_ASC_NODE": 308.8983, "ARG_OF_PERICENTER": 70.7786, "MEAN_ANOMALY": 289.2405, "EPHEMERIS_TYPE": 0, "CLASSIFICATION_TYPE": "U", "NORAD_CAT_ID": 43107, "ELEMENT_SET_NO": 999, "REV_AT_EPOCH": 5383, "BSTAR": 0, "MEAN_MOTION_DOT": -8.2e-07, "MEAN_MOTION_DDOT": 0}, "tle": {"line1": "1 43107U 18003A   25344.34318993 -.00000082  00000+0  00000+0 0  9994", "line2": "2 43107  54.4988 308.8983 0002608  70.7786 289.2405  1.86232173 53837"}}, "geometry": {"type": "Point", "coordinates": [69.82987709611884, 50.234410652461506]}}]}